start=new Date('2022-01-01T00:00:00.000Z').valueOf();
sats=[{"CENTER_NAME":"EARTH","PERIAPSIS":"545.722","RA_OF_ASC_NODE":"196.2242","INCLINATION":"53.0549","SITE":"AFETR","ARG_OF_PERICENTER":"85.7169","REF_FRAME":"TEME","OBJECT_TYPE":"PAYLOAD","EPHEMERIS_TYPE":"0","MEAN_MOTION":"15.06394880","FILE":"3255242","RCS_SIZE":"LARGE","MEAN_MOTION_DDOT":"0.0000000000000","ECCENTRICITY":"0.00021770","CLASSIFICATION_TYPE":"U","NORAD_CAT_ID":"48125","DECAY_DATE":null,"LAUNCH_DATE":"2021-04-07","MEAN_MOTION_DOT":"-0.00000679","MEAN_ELEMENT_THEORY":"SGP4","TLE_LINE2":"2 48125  53.0549 196.2242 0002177  85.7169 274.4069 15.06394880 41941","ELEMENT_SET_NO":"999","OBJECT_ID":"2021-027AK","COUNTRY_CODE":"US","OBJECT_NAME":"STARLINK-2466","APOAPSIS":"548.737","PERIOD":"95.592","GP_ID":"192818878","TLE_LINE1":"1 48125U 21027AK  21365.54371989 -.00000679  00000-0 -26680-4 0  9995","BSTAR":"-0.00002668000000","SEMIMAJOR_AXIS":"6925.364","REV_AT_EPOCH":"4194","MEAN_ANOMALY":"274.4069","EPOCH":"2021-12-31T13:02:57.398496","TIME_SYSTEM":"UTC"},{"OBJECT_TYPE":"PAYLOAD","REF_FRAME":"TEME","ARG_OF_PERICENTER":"87.7113","SITE":"AFETR","INCLINATION":"53.0538","RA_OF_ASC_NODE":"176.0168","PERIAPSIS":"545.630","CENTER_NAME":"EARTH","CLASSIFICATION_TYPE":"U","RCS_SIZE":"LARGE","MEAN_MOTION_DDOT":"0.0000000000000","ECCENTRICITY":"0.00023190","FILE":"3255242","MEAN_MOTION":"15.06392763","EPHEMERIS_TYPE":"0","OBJECT_NAME":"STARLINK-2467","APOAPSIS":"548.842","OBJECT_ID":"2021-027AL","COUNTRY_CODE":"US","ELEMENT_SET_NO":"999","TLE_LINE2":"2 48126  53.0538 176.0168 0002319  87.7113 272.4142 15.06392763 42233","MEAN_ELEMENT_THEORY":"SGP4","MEAN_MOTION_DOT":"0.00000529","DECAY_DATE":null,"LAUNCH_DATE":"2021-04-07","NORAD_CAT_ID":"48126","TIME_SYSTEM":"UTC","EPOCH":"2021-12-31T14:05:21.792192","REV_AT_EPOCH":"4223","MEAN_ANOMALY":"272.4142","BSTAR":"0.00005442500000","TLE_LINE1":"1 48126U 21027AL  21365.58705778  .00000529  00000-0  54425-4 0  9997","GP_ID":"192820130","SEMIMAJOR_AXIS":"6925.371","PERIOD":"95.593"},{"CLASSIFICATION_TYPE":"U","RCS_SIZE":"LARGE","MEAN_MOTION_DDOT":"0.0000000000000","ECCENTRICITY":"0.00025390","FILE":"3255242","MEAN_MOTION":"15.06392421","EPHEMERIS_TYPE":"0","OBJECT_TYPE":"PAYLOAD","REF_FRAME":"TEME","ARG_OF_PERICENTER":"76.6185","SITE":"AFETR","INCLINATION":"53.0540","PERIAPSIS":"545.478","RA_OF_ASC_NODE":"196.3706","CENTER_NAME":"EARTH","TIME_SYSTEM":"UTC","EPOCH":"2021-12-31T12:16:32.901888","REV_AT_EPOCH":"4193","MEAN_ANOMALY":"283.5087","GP_ID":"192820368","TLE_LINE1":"1 48127U 21027AM  21365.51149192 -.00001823  00000-0 -10347-3 0  9997","BSTAR":"-0.00010347000000","SEMIMAJOR_AXIS":"6925.372","PERIOD":"95.593","OBJECT_NAME":"STARLINK-2468","APOAPSIS":"548.995","OBJECT_ID":"2021-027AM","COUNTRY_CODE":"US","ELEMENT_SET_NO":"999","MEAN_ELEMENT_THEORY":"SGP4","TLE_LINE2":"2 48127  53.0540 196.3706 0002539  76.6185 283.5087 15.06392421 41938","DECAY_DATE":null,"MEAN_MOTION_DOT":"-0.00001823","LAUNCH_DATE":"2021-04-07","NORAD_CAT_ID":"48127"},{"OBJECT_NAME":"STARLINK-2469","APOAPSIS":"549.214","COUNTRY_CODE":"US","OBJECT_ID":"2021-027AN","ELEMENT_SET_NO":"999","TLE_LINE2":"2 48128  53.0570 125.8804 0002865 120.0520 240.0754 15.06394518 42925","MEAN_ELEMENT_THEORY":"SGP4","DECAY_DATE":null,"MEAN_MOTION_DOT":"-0.00001664","LAUNCH_DATE":"2021-04-07","NORAD_CAT_ID":"48128","TIME_SYSTEM":"UTC","EPOCH":"2021-12-31T14:47:46.395744","MEAN_ANOMALY":"240.0754","REV_AT_EPOCH":"4292","SEMIMAJOR_AXIS":"6925.365","TLE_LINE1":"1 48128U 21027AN  21365.61650921 -.00001664  00000-0 -92800-4 0  9994","GP_ID":"192819129","BSTAR":"-0.00009280000000","PERIOD":"95.592","OBJECT_TYPE":"PAYLOAD","REF_FRAME":"TEME","ARG_OF_PERICENTER":"120.0520","SITE":"AFETR","INCLINATION":"53.0570","PERIAPSIS":"545.246","RA_OF_ASC_NODE":"125.8804","CENTER_NAME":"EARTH","CLASSIFICATION_TYPE":"U","MEAN_MOTION_DDOT":"0.0000000000000","ECCENTRICITY":"0.00028650","RCS_SIZE":"LARGE","FILE":"3255242","MEAN_MOTION":"15.06394518","EPHEMERIS_TYPE":"0"},{"MEAN_ELEMENT_THEORY":"SGP4","TLE_LINE2":"2 48129  53.0551 196.1035 0002258  80.7979 279.3266 15.06388650 41942","DECAY_DATE":null,"MEAN_MOTION_DOT":"-0.00000466","LAUNCH_DATE":"2021-04-07","NORAD_CAT_ID":"48129","APOAPSIS":"548.812","OBJECT_NAME":"STARLINK-2471","COUNTRY_CODE":"US","OBJECT_ID":"2021-027AP","ELEMENT_SET_NO":"999","MEAN_ANOMALY":"279.3266","REV_AT_EPOCH":"4194","SEMIMAJOR_AXIS":"6925.383","GP_ID":"192819379","TLE_LINE1":"1 48129U 21027AP  21365.57047129 -.00000466  00000-0 -12378-4 0  9991","BSTAR":"-0.00001237800000","PERIOD":"95.593","TIME_SYSTEM":"UTC","EPOCH":"2021-12-31T13:41:28.719456","PERIAPSIS":"545.685","RA_OF_ASC_NODE":"196.1035","CENTER_NAME":"EARTH","OBJECT_TYPE":"PAYLOAD","ARG_OF_PERICENTER":"80.7979","REF_FRAME":"TEME","SITE":"AFETR","INCLINATION":"53.0551","EPHEMERIS_TYPE":"0","CLASSIFICATION_TYPE":"U","ECCENTRICITY":"0.00022580","MEAN_MOTION_DDOT":"0.0000000000000","RCS_SIZE":"LARGE","FILE":"3255242","MEAN_MOTION":"15.06388650"},{"OBJECT_NAME":"STARLINK-2472","APOAPSIS":"548.769","COUNTRY_CODE":"US","OBJECT_ID":"2021-027AQ","ELEMENT_SET_NO":"999","TLE_LINE2":"2 48130  53.0533 203.5359 0002225  75.6276 284.4960 15.06395303 41797","MEAN_ELEMENT_THEORY":"SGP4","DECAY_DATE":null,"MEAN_MOTION_DOT":"0.00001075","LAUNCH_DATE":"2021-04-07","NORAD_CAT_ID":"48130","TIME_SYSTEM":"UTC","EPOCH":"2021-12-31T00:41:51.267840","MEAN_ANOMALY":"284.4960","REV_AT_EPOCH":"4179","SEMIMAJOR_AXIS":"6925.363","TLE_LINE1":"1 48130U 21027AQ  21365.02906560  .00001075  00000-0  91112-4 0  9994","GP_ID":"192819630","BSTAR":"0.00009111200000","PERIOD":"95.592","OBJECT_TYPE":"PAYLOAD","ARG_OF_PERICENTER":"75.6276","REF_FRAME":"TEME","SITE":"AFETR","INCLINATION":"53.0533","RA_OF_ASC_NODE":"203.5359","PERIAPSIS":"545.687","CENTER_NAME":"EARTH","CLASSIFICATION_TYPE":"U","ECCENTRICITY":"0.00022250","MEAN_MOTION_DDOT":"0.0000000000000","RCS_SIZE":"LARGE","FILE":"3255242","MEAN_MOTION":"15.06395303","EPHEMERIS_TYPE":"0"},{"SEMIMAJOR_AXIS":"6925.371","TLE_LINE1":"1 48131U 21027AR  21365.51333216  .00000608  00000-0  59783-4 0  9990","GP_ID":"192819868","BSTAR":"0.00005978300000","PERIOD":"95.593","MEAN_ANOMALY":"270.1729","REV_AT_EPOCH":"4221","EPOCH":"2021-12-31T12:19:11.898624","TIME_SYSTEM":"UTC","NORAD_CAT_ID":"48131","MEAN_ELEMENT_THEORY":"SGP4","TLE_LINE2":"2 48131  53.0531 176.3638 0002585  89.9556 270.1729 15.06392522 42214","MEAN_MOTION_DOT":"0.00000608","DECAY_DATE":null,"LAUNCH_DATE":"2021-04-07","COUNTRY_CODE":"US","OBJECT_ID":"2021-027AR","ELEMENT_SET_NO":"999","OBJECT_NAME":"STARLINK-2473","APOAPSIS":"549.027","EPHEMERIS_TYPE":"0","FILE":"3255242","MEAN_MOTION":"15.06392522","CLASSIFICATION_TYPE":"U","MEAN_MOTION_DDOT":"0.0000000000000","ECCENTRICITY":"0.00025850","RCS_SIZE":"LARGE","CENTER_NAME":"EARTH","PERIAPSIS":"545.446","RA_OF_ASC_NODE":"176.3638","SITE":"AFETR","INCLINATION":"53.0531","OBJECT_TYPE":"PAYLOAD","REF_FRAME":"TEME","ARG_OF_PERICENTER":"89.9556"},{"MEAN_ANOMALY":"282.2487","REV_AT_EPOCH":"4193","PERIOD":"95.592","SEMIMAJOR_AXIS":"6925.340","BSTAR":"0.00002803600000","TLE_LINE1":"1 48132U 21027AS  21365.55940353  .00000136  00000-0  28036-4 0  9994","GP_ID":"192818629","TIME_SYSTEM":"UTC","EPOCH":"2021-12-31T13:25:32.464992","DECAY_DATE":null,"LAUNCH_DATE":"2021-04-07","MEAN_MOTION_DOT":"0.00000136","TLE_LINE2":"2 48132  53.0555 196.1583 0002468  77.8778 282.2487 15.06402778 41930","MEAN_ELEMENT_THEORY":"SGP4","NORAD_CAT_ID":"48132","APOAPSIS":"548.914","OBJECT_NAME":"STARLINK-2474","ELEMENT_SET_NO":"999","COUNTRY_CODE":"US","OBJECT_ID":"2021-027AS","EPHEMERIS_TYPE":"0","MEAN_MOTION_DDOT":"0.0000000000000","ECCENTRICITY":"0.00024680","RCS_SIZE":"LARGE","CLASSIFICATION_TYPE":"U","MEAN_MOTION":"15.06402778","FILE":"3255242","RA_OF_ASC_NODE":"196.1583","PERIAPSIS":"545.496","CENTER_NAME":"EARTH","ARG_OF_PERICENTER":"77.8778","REF_FRAME":"TEME","OBJECT_TYPE":"PAYLOAD","INCLINATION":"53.0555","SITE":"AFETR"},{"CENTER_NAME":"EARTH","PERIAPSIS":"545.757","RA_OF_ASC_NODE":"196.1741","SITE":"AFETR","INCLINATION":"53.0550","OBJECT_TYPE":"PAYLOAD","REF_FRAME":"TEME","ARG_OF_PERICENTER":"84.7983","EPHEMERIS_TYPE":"0","FILE":"3255242","MEAN_MOTION":"15.06390813","CLASSIFICATION_TYPE":"U","RCS_SIZE":"LARGE","MEAN_MOTION_DDOT":"0.0000000000000","ECCENTRICITY":"0.00021440","NORAD_CAT_ID":"48133","TLE_LINE2":"2 48133  53.0550 196.1741 0002144  84.7983 275.3251 15.06390813 41947","MEAN_ELEMENT_THEORY":"SGP4","LAUNCH_DATE":"2021-04-07","DECAY_DATE":null,"MEAN_MOTION_DOT":"-0.00000746","OBJECT_ID":"2021-027AT","COUNTRY_CODE":"US","ELEMENT_SET_NO":"999","OBJECT_NAME":"STARLINK-2475","APOAPSIS":"548.727","BSTAR":"-0.00003119400000","TLE_LINE1":"1 48133U 21027AT  21365.55572358 -.00000746  00000-0 -31194-4 0  9999","GP_ID":"192818879","SEMIMAJOR_AXIS":"6925.377","PERIOD":"95.593","REV_AT_EPOCH":"4194","MEAN_ANOMALY":"275.3251","EPOCH":"2021-12-31T13:20:14.517312","TIME_SYSTEM":"UTC"},{"COUNTRY_CODE":"US","OBJECT_ID":"2021-027AU","ELEMENT_SET_NO":"999","APOAPSIS":"548.900","OBJECT_NAME":"STARLINK-2476","NORAD_CAT_ID":"48134","TLE_LINE2":"2 48134  53.0550 196.2376 0002415  81.0469 279.0793 15.06395568 41936","MEAN_ELEMENT_THEORY":"SGP4","DECAY_DATE":null,"MEAN_MOTION_DOT":"-0.00000189","LAUNCH_DATE":"2021-04-07","EPOCH":"2021-12-31T12:59:00.348864","TIME_SYSTEM":"UTC","SEMIMAJOR_AXIS":"6925.362","TLE_LINE1":"1 48134U 21027AU  21365.54097626 -.00000189  00000-0  62202-5 0  9994","GP_ID":"192820131","BSTAR":"0.00000622020000","PERIOD":"95.592","MEAN_ANOMALY":"279.0793","REV_AT_EPOCH":"4193","SITE":"AFETR","INCLINATION":"53.0550","OBJECT_TYPE":"PAYLOAD","REF_FRAME":"TEME","ARG_OF_PERICENTER":"81.0469","CENTER_NAME":"EARTH","RA_OF_ASC_NODE":"196.2376","PERIAPSIS":"545.555","FILE":"3255242","MEAN_MOTION":"15.06395568","CLASSIFICATION_TYPE":"U","ECCENTRICITY":"0.00024150","MEAN_MOTION_DDOT":"0.0000000000000","RCS_SIZE":"LARGE","EPHEMERIS_TYPE":"0"}];
